{
  "type": "FeatureCollection",
  "features": [
    {
      "type": "Feature",
      "properties": {
        "norad_id": 63772,
        "name": "BIOMASS",
        "group": "resource",
        "lat": 58.58731284515642,
        "lon": 157.5342424676185,
        "alt_km": 662.4552299724974,
        "timestamp": "2025-12-11T22:43:46.929522+00:00",
        "meta_object_name": "BIOMASS",
        "meta_object_id": "2025-090A",
        "meta_epoch": "2025-12-11T11:00:17.455968",
        "meta_mean_motion": 14.67543861,
        "meta_eccentricity": 0.00011798,
        "meta_inclination": 98.07,
        "meta_ra_of_asc_node": 170.4869,
        "meta_arg_of_pericenter": 77.026,
        "meta_mean_anomaly": 283.1077,
        "meta_ephemeris_type": 0,
        "meta_classification_type": "U",
        "meta_norad_cat_id": 63772,
        "meta_element_set_no": 999,
        "meta_rev_at_epoch": 3315,
        "meta_bstar": 0.00042874166,
        "meta_mean_motion_dot": 2.384e-05,
        "meta_mean_motion_ddot": 0,
        "tle_line1": "1 63772U 25090A   25345.45853537  .00002384  00000+0  42874-3 0  9994",
        "tle_line2": "2 63772  98.0700 170.4869 0001179  77.0260 283.1077 14.67543861 33151"
      },
      "geometry": {
        "type": "Point",
        "coordinates": [
          157.5342424676185,
          58.58731284515642
        ]
      }
    },
    {
      "type": "Feature",
      "properties": {
        "norad_id": 64694,
        "name": "GOSAT-GW (IBUKI GW)",
        "group": "resource",
        "lat": -81.89763240215305,
        "lon": 18.197467128744368,
        "alt_km": 677.234231153966,
        "timestamp": "2025-12-11T22:43:46.929532+00:00",
        "meta_object_name": "GOSAT-GW (IBUKI GW)",
        "meta_object_id": "2025-141A",
        "meta_epoch": "2025-12-11T14:57:43.318656",
        "meta_mean_motion": 14.67571593,
        "meta_eccentricity": 0.00015099,
        "meta_inclination": 98.0421,
        "meta_ra_of_asc_node": 281.1566,
        "meta_arg_of_pericenter": 83.1067,
        "meta_mean_anomaly": 277.0309,
        "meta_ephemeris_type": 0,
        "meta_classification_type": "U",
        "meta_norad_cat_id": 64694,
        "meta_element_set_no": 999,
        "meta_rev_at_epoch": 2433,
        "meta_bstar": 0.00044559599,
        "meta_mean_motion_dot": 2.482e-05,
        "meta_mean_motion_ddot": 0,
        "tle_line1": "1 64694U 25141A   25345.62341804  .00002482  00000+0  44560-3 0  9996",
        "tle_line2": "2 64694  98.0421 281.1566 0001509  83.1067 277.0309 14.67571593 24332"
      },
      "geometry": {
        "type": "Point",
        "coordinates": [
          18.197467128744368,
          -81.89763240215305
        ]
      }
    },
    {
      "type": "Feature",
      "properties": {
        "norad_id": 64876,
        "name": "IONOSFERA-M 3",
        "group": "resource",
        "lat": 42.217439585343584,
        "lon": -60.03574893374335,
        "alt_km": 815.4579811297162,
        "timestamp": "2025-12-11T22:43:46.929542+00:00",
        "meta_object_name": "IONOSFERA-M 3",
        "meta_object_id": "2025-155A",
        "meta_epoch": "2025-12-11T14:04:55.695936",
        "meta_mean_motion": 14.21441455,
        "meta_eccentricity": 0.00022456,
        "meta_inclination": 98.5781,
        "meta_ra_of_asc_node": 307.4855,
        "meta_arg_of_pericenter": 61.8295,
        "meta_mean_anomaly": 298.311,
        "meta_ephemeris_type": 0,
        "meta_classification_type": "U",
        "meta_norad_cat_id": 64876,
        "meta_element_set_no": 999,
        "meta_rev_at_epoch": 1975,
        "meta_bstar": 0.00014401888,
        "meta_mean_motion_dot": 2.72e-06,
        "meta_mean_motion_ddot": 0,
        "tle_line1": "1 64876U 25155A   25345.58675574  .00000272  00000+0  14402-3 0  9999",
        "tle_line2": "2 64876  98.5781 307.4855 0002245  61.8295 298.3110 14.21441455 19754"
      },
      "geometry": {
        "type": "Point",
        "coordinates": [
          -60.03574893374335,
          42.217439585343584
        ]
      }
    },
    {
      "type": "Feature",
      "properties": {
        "norad_id": 64877,
        "name": "IONOSFERA-M 4",
        "group": "resource",
        "lat": -43.033546465504536,
        "lon": 119.65410049007973,
        "alt_km": 828.1729906062519,
        "timestamp": "2025-12-11T22:43:46.929552+00:00",
        "meta_object_name": "IONOSFERA-M 4",
        "meta_object_id": "2025-155B",
        "meta_epoch": "2025-12-11T14:55:25.547808",
        "meta_mean_motion": 14.21441707,
        "meta_eccentricity": 0.00016074,
        "meta_inclination": 98.578,
        "meta_ra_of_asc_node": 307.4391,
        "meta_arg_of_pericenter": 64.5588,
        "meta_mean_anomaly": 295.5756,
        "meta_ephemeris_type": 0,
        "meta_classification_type": "U",
        "meta_norad_cat_id": 64877,
        "meta_element_set_no": 999,
        "meta_rev_at_epoch": 1975,
        "meta_bstar": 9.3511011e-05,
        "meta_mean_motion_dot": 1.62e-06,
        "meta_mean_motion_ddot": 0,
        "tle_line1": "1 64877U 25155B   25345.62182347  .00000162  00000+0  93511-4 0  9993",
        "tle_line2": "2 64877  98.5780 307.4391 0001607  64.5588 295.5756 14.21441707 19750"
      },
      "geometry": {
        "type": "Point",
        "coordinates": [
          119.65410049007973,
          -43.033546465504536
        ]
      }
    },
    {
      "type": "Feature",
      "properties": {
        "norad_id": 64899,
        "name": "MICROCARB",
        "group": "resource",
        "lat": -53.419367201818126,
        "lon": -129.6219809145215,
        "alt_km": 660.8686391235451,
        "timestamp": "2025-12-11T22:43:46.929563+00:00",
        "meta_object_name": "MICROCARB",
        "meta_object_id": "2025-156A",
        "meta_epoch": "2025-12-11T15:08:43.056960",
        "meta_mean_motion": 14.72054339,
        "meta_eccentricity": 0.001708,
        "meta_inclination": 98.0027,
        "meta_ra_of_asc_node": 60.9944,
        "meta_arg_of_pericenter": 148.1137,
        "meta_mean_anomaly": 212.1108,
        "meta_ephemeris_type": 0,
        "meta_classification_type": "U",
        "meta_norad_cat_id": 64899,
        "meta_element_set_no": 999,
        "meta_rev_at_epoch": 2037,
        "meta_bstar": 0.0001938356,
        "meta_mean_motion_dot": 1.171e-05,
        "meta_mean_motion_ddot": 0,
        "tle_line1": "1 64899U 25156A   25345.63105390  .00001171  00000+0  19384-3 0  9998",
        "tle_line2": "2 64899  98.0027  60.9944 0017080 148.1137 212.1108 14.72054339 20372"
      },
      "geometry": {
        "type": "Point",
        "coordinates": [
          -129.6219809145215,
          -53.419367201818126
        ]
      }
    },
    {
      "type": "Feature",
      "properties": {
        "norad_id": 64900,
        "name": "CO3D 3",
        "group": "resource",
        "lat": 41.112233578164336,
        "lon": -111.13146232933848,
        "alt_km": 501.1980022449234,
        "timestamp": "2025-12-11T22:43:46.929573+00:00",
        "meta_object_name": "CO3D 3",
        "meta_object_id": "2025-156B",
        "meta_epoch": "2025-12-11T15:48:15.352992",
        "meta_mean_motion": 15.2022542,
        "meta_eccentricity": 0.00013506,
        "meta_inclination": 97.4338,
        "meta_ra_of_asc_node": 62.041,
        "meta_arg_of_pericenter": 101.9115,
        "meta_mean_anomaly": 258.2272,
        "meta_ephemeris_type": 0,
        "meta_classification_type": "U",
        "meta_norad_cat_id": 64900,
        "meta_element_set_no": 999,
        "meta_rev_at_epoch": 2104,
        "meta_bstar": 0.00037236678,
        "meta_mean_motion_dot": 8.007e-05,
        "meta_mean_motion_ddot": 0,
        "tle_line1": "1 64900U 25156B   25345.65851103  .00008007  00000+0  37237-3 0  9995",
        "tle_line2": "2 64900  97.4338  62.0410 0001350 101.9115 258.2272 15.20225420 21043"
      },
      "geometry": {
        "type": "Point",
        "coordinates": [
          -111.13146232933848,
          41.112233578164336
        ]
      }
    },
    {
      "type": "Feature",
      "properties": {
        "norad_id": 64901,
        "name": "CO3D 4",
        "group": "resource",
        "lat": 42.06014828263774,
        "lon": -110.90867833334038,
        "alt_km": 501.57814959288953,
        "timestamp": "2025-12-11T22:43:46.929583+00:00",
        "meta_object_name": "CO3D 4",
        "meta_object_id": "2025-156C",
        "meta_epoch": "2025-12-09T21:09:17.831232",
        "meta_mean_motion": 15.20201124,
        "meta_eccentricity": 0.0001172,
        "meta_inclination": 97.4339,
        "meta_ra_of_asc_node": 60.2895,
        "meta_arg_of_pericenter": 212.2858,
        "meta_mean_anomaly": 147.8306,
        "meta_ephemeris_type": 0,
        "meta_classification_type": "U",
        "meta_norad_cat_id": 64901,
        "meta_element_set_no": 999,
        "meta_rev_at_epoch": 2077,
        "meta_bstar": -2.5806744e-05,
        "meta_mean_motion_dot": -6.26e-06,
        "meta_mean_motion_ddot": 0,
        "tle_line1": "1 64901U 25156C   25343.88145638 -.00000626  00000+0 -25807-4 0  9990",
        "tle_line2": "2 64901  97.4339  60.2895 0001172 212.2858 147.8306 15.20201124 20779"
      },
      "geometry": {
        "type": "Point",
        "coordinates": [
          -110.90867833334038,
          42.06014828263774
        ]
      }
    }
  ]
}